[{"OBJECT_NAME":"STARLINK-32553","OBJECT_ID":"2024-217Q","EPOCH":"2026-03-09T22:00:01.999584","MEAN_MOTION":15.30196298,"ECCENTRICITY":0.00012,"INCLINATION":53.1589,"RA_OF_ASC_NODE":193.0983,"ARG_OF_PERICENTER":84.5668,"MEAN_ANOMALY":235.3429,"EPHEMERIS_TYPE":0,"CLASSIFICATION_TYPE":"U","NORAD_CAT_ID":62071,"ELEMENT_SET_NO":999,"REV_AT_EPOCH":580,"BSTAR":2.332763e-5,"MEAN_MOTION_DOT":3.32e-6,"MEAN_MOTION_DDOT":0},{"OBJECT_NAME":"SIMSAT 1","OBJECT_ID":"2000-026A","EPOCH":"2026-03-09T17:22:54.646176","MEAN_MOTION":15.27666538,"ECCENTRICITY":0.00084816,"INCLINATION":86.3501,"RA_OF_ASC_NODE":180.5413,"ARG_OF_PERICENTER":14.8337,"MEAN_ANOMALY":345.3157,"EPHEMERIS_TYPE":0,"CLASSIFICATION_TYPE":"U","NORAD_CAT_ID":26365,"ELEMENT_SET_NO":999,"REV_AT_EPOCH":42720,"BSTAR":0.00013499313,"MEAN_MOTION_DOT":3.69e-5,"MEAN_MOTION_DDOT":0}]
